NORAD_CAT_ID,OBJECT_NAME,OBJECT_TYPE,EPOCH,MEAN_MOTION,ECCENTRICITY,INCLINATION,RA_OF_ASC_NODE,ARG_OF_PERICENTER,MEAN_ANOMALY,BSTAR,MEAN_MOTION_DOT,MEAN_MOTION_DDOT,TLE_LINE0,TLE_LINE1,TLE_LINE2,SEMIMAJOR_AXIS,PERIOD,APOGEE,PERIGEE,DECAYED
52273.0,STARLINK-3782,PAYLOAD,2024-03-16 07:31:12,15.08890578,0.0001181,53.2166,106.8672,98.2394,261.8732,0.00047969,7.365e-05,0.0,0 STARLINK-3782,1 52273U 22041N   24076.31333999  .00007365  00000-0  47969-3 0  9996,2 52273  53.2166 106.8672 0001181  98.2394 261.8732 15.08890578106513,6917.726,95.434,540.408,538.774,0.0
52273.0,STARLINK-3782,PAYLOAD,2024-03-17 12:08:13,15.08832007,0.0001348,53.2167,101.5148,107.3335,252.7805,1.4362e-05,-5.9e-07,0.0,0 STARLINK-3782,1 52273U 22041N   24077.50570725 -.00000059  00000-0  14362-4 0  9994,2 52273  53.2167 101.5148 0001348 107.3335 252.7805 15.08832007106698,6917.905,95.438,540.702,538.837,0.0
52273.0,STARLINK-3782,PAYLOAD,2024-03-17 13:43:36,15.08832171,0.0001391,53.2165,101.2176,97.638,262.4771,1.5752e-05,-3.7e-07,0.0,0 STARLINK-3782,1 52273U 22041N   24077.57194780 -.00000037  00000-0  15752-4 0  9994,2 52273  53.2165 101.2176 0001391  97.6380 262.4771 15.08832171105481,6917.904,95.438,540.732,538.807,0.0
52273.0,STARLINK-3782,PAYLOAD,2024-03-18 08:48:14,15.0883879,0.0001395,53.216,97.6497,99.1291,260.9859,-0.00014259,-2.556e-05,0.0,0 STARLINK-3782,1 52273U 22041N   24078.36683209 -.00002556  00000-0 -14259-3 0  9990,2 52273  53.2160  97.6497 0001395  99.1291 260.9859 15.08838790105609,6917.884,95.438,540.714,538.784,0.0
52273.0,STARLINK-3782,PAYLOAD,2024-03-19 10:14:21,15.08860017,0.0001884,53.2185,92.8846,85.941,274.1798,0.00033394,5.033e-05,0.0,0 STARLINK-3782,1 52273U 22041N   24079.42664164  .00005033  00000-0  33394-3 0  9999,2 52273  53.2185  92.8846 0001884  85.9410 274.1798 15.08860017106988,6917.819,95.436,540.988,538.381,0.0
52273.0,STARLINK-3782,PAYLOAD,2024-03-20 00:32:51,15.08835892,0.0001142,53.2175,90.2169,102.4712,257.6408,0.00013791,1.907e-05,0.0,0 STARLINK-3782,1 52273U 22041N   24080.02282063  .00001907  00000-0  13791-3 0  9996,2 52273  53.2175  90.2169 0001142 102.4712 257.6408 15.08835892107072,6917.893,95.438,540.548,538.968,0.0
52273.0,STARLINK-3782,PAYLOAD,2024-03-20 06:54:24,15.08835341,0.0001533,53.2184,89.0154,108.0367,252.0793,6.298e-05,7.14e-06,0.0,0 STARLINK-3782,1 52273U 22041N   24080.28778565  .00000714  00000-0  62980-4 0  9991,2 52273  53.2184  89.0154 0001533 108.0367 252.0793 15.08835341105897,6917.895,95.438,540.82,538.699,0.0
52273.0,STARLINK-3782,PAYLOAD,2024-03-21 05:09:48,15.08850105,0.000159,53.2176,84.8623,97.7605,262.3568,-0.0001818,-3.181e-05,0.0,0 STARLINK-3782,1 52273U 22041N   24081.21514541 -.00003181  00000-0 -18180-3 0  9992,2 52273  53.2176  84.8623 0001590  97.7605 262.3568 15.08850105107255,6917.85,95.437,540.814,538.615,0.0
52273.0,STARLINK-3782,PAYLOAD,2024-03-21 06:45:11,15.08850916,0.0001573,53.2174,84.5643,100.4384,259.6785,-0.00016566,-2.924e-05,0.0,0 STARLINK-3782,1 52273U 22041N   24081.28138371 -.00002924  00000-0 -16566-3 0  9992,2 52273  53.2174  84.5643 0001573 100.4384 259.6785 15.08850916106045,6917.847,95.437,540.8,538.624,0.0
52273.0,STARLINK-3782,PAYLOAD,2024-03-22 05:00:36,15.08834164,0.0001664,53.2161,80.4009,109.9042,250.2129,0.00037017,5.607e-05,0.0,0 STARLINK-3782,1 52273U 22041N   24082.20875383  .00005607  00000-0  37017-3 0  9999,2 52273  53.2161  80.4009 0001664 109.9042 250.2129 15.08834164107405,6917.898,95.438,540.914,538.612,0.0
52273.0,STARLINK-3782,PAYLOAD,2024-03-22 09:46:45,15.08842411,0.0001654,53.2157,79.5083,109.3077,250.8094,0.00044272,6.765e-05,0.0,0 STARLINK-3782,1 52273U 22041N   24082.40747262  .00006765  00000-0  44272-3 0  9992,2 52273  53.2157  79.5083 0001654 109.3077 250.8094 15.08842411106211,6917.873,95.437,540.882,538.594,0.0
52273.0,STARLINK-3782,PAYLOAD,2024-03-22 19:19:04,15.08845605,0.0001628,53.2154,77.7232,109.5551,250.5617,0.00024468,3.609e-05,0.0,0 STARLINK-3782,1 52273U 22041N   24082.80491058  .00003609  00000-0  24468-3 0  9994,2 52273  53.2154  77.7232 0001628 109.5551 250.5617 15.08845605106276,6917.863,95.437,540.854,538.602,0.0
52273.0,STARLINK-3782,PAYLOAD,2024-03-23 06:26:46,15.08848399,0.0001505,53.216,75.641,106.1671,253.9487,0.00027879,4.153e-05,0.0,0 STARLINK-3782,1 52273U 22041N   24083.26859077  .00004153  00000-0  27879-3 0  9998,2 52273  53.2160  75.6410 0001505 106.1671 253.9487 15.08848399107566,6917.855,95.437,540.761,538.679,0.0
52273.0,STARLINK-3782,PAYLOAD,2024-03-24 04:42:09,15.08845914,0.0001536,53.2167,71.4775,105.5598,254.5564,0.00011296,1.511e-05,0.0,0 STARLINK-3782,1 52273U 22041N   24084.19594849  .00001511  00000-0  11296-3 0  9995,2 52273  53.2167  71.4775 0001536 105.5598 254.5564 15.08845914107705,6917.862,95.437,540.79,538.665,0.0
52273.0,STARLINK-3782,PAYLOAD,2024-03-24 06:17:33,15.08846881,0.0001353,53.2166,71.1829,94.9952,265.1195,8.1779e-05,1.014e-05,0.0,0 STARLINK-3782,1 52273U 22041N   24084.26218817  .00001014  00000-0  81779-4 0  9993,2 52273  53.2166  71.1829 0001353  94.9952 265.1195 15.08846881106490,6917.859,95.437,540.66,538.788,0.0
52273.0,STARLINK-3782,PAYLOAD,2024-03-25 09:18:59,15.08933067,0.0001016,53.2174,66.1274,95.5004,264.6104,0.00075922,0.00011846,0.0,0 STARLINK-3782,1 52273U 22041N   24085.38819058  .00011846  00000-0  75922-3 0  9997,2 52273  53.2174  66.1274 0001016  95.5004 264.6104 15.08933067107889,6917.596,95.432,540.164,538.758,0.0
52273.0,STARLINK-3782,PAYLOAD,2024-03-25 15:40:38,15.08843556,0.0001606,53.2176,64.941,78.0197,282.0975,-8.178e-06,-4.18e-06,0.0,0 STARLINK-3782,1 52273U 22041N   24085.65322606 -.00000418  00000-0 -81780-5 0  9991,2 52273  53.2176  64.9410 0001606  78.0197 282.0975 15.08843556107921,6917.87,95.437,540.846,538.624,0.0
52273.0,STARLINK-3782,PAYLOAD,2024-03-26 04:23:46,15.08809515,0.0001604,53.2179,62.5632,94.5711,265.5465,-0.00021805,-3.754e-05,0.0,0 STARLINK-3782,1 52273U 22041N   24086.18317818 -.00003754  00000-0 -21805-3 0  9995,2 52273  53.2179  62.5632 0001604  94.5711 265.5465 15.08809515108004,6917.974,95.439,540.948,538.729,0.0
52273.0,STARLINK-3782,PAYLOAD,2024-03-26 07:34:32,15.08811453,0.0001774,53.2191,61.9625,82.9985,277.1209,-0.00018338,-3.203e-05,0.0,0 STARLINK-3782,1 52273U 22041N   24086.31565804 -.00003203  00000-0 -18338-3 0  9996,2 52273  53.2191  61.9625 0001774  82.9985 277.1209 15.08811453106800,6917.968,95.439,541.06,538.605,0.0
52273.0,STARLINK-3782,PAYLOAD,2024-03-26 15:31:28,15.08821768,0.0001621,53.2181,60.4796,81.7669,278.3507,-8.5773e-05,-1.652e-05,0.0,0 STARLINK-3782,1 52273U 22041N   24086.64685286 -.00001652  00000-0 -85773-4 0  9993,2 52273  53.2181  60.4796 0001621  81.7669 278.3507 15.08821768108074,6917.936,95.439,540.923,538.68,0.0
52273.0,STARLINK-3782,PAYLOAD,2024-03-27 04:14:32,15.08838349,9.72e-05,53.2198,58.0992,104.2418,255.8682,-0.00018653,-3.255e-05,0.0,0 STARLINK-3782,1 52273U 22041N   24087.17676908 -.00003255  00000-0 -18653-3 0  9996,2 52273  53.2198  58.0992 0000972 104.2418 255.8682 15.08838349108150,6917.885,95.438,540.423,539.078,0.0
52273.0,STARLINK-3782,PAYLOAD,2024-03-27 07:25:18,15.08852652,0.0001401,53.2174,57.5056,97.6267,262.4884,-8.1396e-05,-1.584e-05,0.0,0 STARLINK-3782,1 52273U 22041N   24087.30923765 -.00001584  00000-0 -81396-4 0  9995,2 52273  53.2174  57.5056 0001401  97.6267 262.4884 15.08852652108177,6917.842,95.437,540.676,538.738,0.0
52273.0,STARLINK-3782,PAYLOAD,2024-03-27 15:22:12,15.08881407,0.0001282,53.2176,56.0188,95.048,265.0658,-0.0004345,-7.204e-05,0.0,0 STARLINK-3782,1 52273U 22041N   24087.64041861 -.00007204  00000-0 -43450-3 0  9993,2 52273  53.2176  56.0188 0001282  95.0480 265.0658 15.08881407108229,6917.754,95.435,540.506,538.732,0.0
52273.0,STARLINK-3782,PAYLOAD,2024-03-28 04:05:20,15.08830881,0.0001869,53.2191,53.6359,92.8544,267.2662,0.00046695,7.149e-05,0.0,0 STARLINK-3782,1 52273U 22041N   24088.17037253  .00007149  00000-0  46695-3 0  9992,2 52273  53.2191  53.6359 0001869  92.8544 267.2662 15.08830881108304,6917.908,95.438,541.066,538.48,0.0
52273.0,STARLINK-3782,PAYLOAD,2024-03-28 21:34:34,15.08841736,0.0001514,53.2187,50.3654,99.8273,260.289,0.0002249,3.293e-05,0.0,0 STARLINK-3782,1 52273U 22041N   24088.89900751  .00003293  00000-0  22490-3 0  9996,2 52273  53.2187  50.3654 0001514  99.8273 260.2890 15.08841736107197,6917.875,95.437,540.787,538.693,0.0
52273.0,STARLINK-3782,PAYLOAD,2024-03-29 03:56:06,15.08839567,0.000166,53.2196,49.1761,101.7672,258.3507,9.4431e-05,1.215e-05,0.0,0 STARLINK-3782,1 52273U 22041N   24089.16396858  .00001215  00000-0  94431-4 0  9991,2 52273  53.2196  49.1761 0001660 101.7672 258.3507 15.08839567107237,6917.882,95.438,540.895,538.598,0.0
52273.0,STARLINK-3782,PAYLOAD,2024-03-29 21:25:21,15.08842002,0.0001559,53.2194,45.9047,102.7072,257.4095,7.1441e-05,8.49e-06,0.0,0 STARLINK-3782,1 52273U 22041N   24089.89260607  .00000849  00000-0  71441-4 0  9991,2 52273  53.2194  45.9047 0001559 102.7072 257.4095 15.08842002108565,6917.874,95.437,540.818,538.661,0.0
52273.0,STARLINK-3782,PAYLOAD,2024-03-30 13:19:11,15.08848703,0.000146,53.2191,42.9338,92.8566,267.2593,7.5037e-05,9.07e-06,0.0,0 STARLINK-3782,1 52273U 22041N   24090.55499948  .00000907  00000-0  75037-4 0  9998,2 52273  53.2191  42.9338 0001460  92.8566 267.2593 15.08848703107442,6917.854,95.437,540.729,538.709,0.0
52273.0,STARLINK-3782,PAYLOAD,2024-03-30 21:16:08,15.08835271,0.0002029,53.2191,41.4462,83.5731,276.5492,4.3522e-05,4.04e-06,0.0,0 STARLINK-3782,1 52273U 22041N   24090.88621179  .00000404  00000-0  43522-4 0  9993,2 52273  53.2191  41.4462 0002029  83.5731 276.5492 15.08835271108715,6917.895,95.438,541.163,538.356,0.0
52273.0,STARLINK-3782,PAYLOAD,2024-03-31 13:09:59,15.08841551,0.0001642,53.2213,38.4763,98.2909,261.8269,7.5809e-05,9.19e-06,0.0,0 STARLINK-3782,1 52273U 22041N   24091.54860766  .00000919  00000-0  75809-4 0  9998,2 52273  53.2213  38.4763 0001642  98.2909 261.8269 15.08841551107592,6917.876,95.437,540.877,538.605,0.0
